ONEWEB-0012             
1 44057U 19010A   25252.14042788  .00000024  00000+0  30075-4 0  9995
2 44057  87.8981 284.8165 0002129  82.5264 277.6108 13.16593890314585
ONEWEB-0010             
1 44058U 19010B   25252.16576148  .00000073  00000+0  15601-3 0  9991
2 44058  87.8986 284.7945 0001476  94.7594 265.3705 13.16594439314634
ONEWEB-0008             
1 44059U 19010C   25252.03907435  .00000051  00000+0  10072-3 0  9998
2 44059  87.8980 284.8172 0002081  96.1252 264.0116 13.16596473314735
ONEWEB-0007             
1 44060U 19010D   25252.23116302  .00000051  00000+0  10029-3 0  9999
2 44060  87.9043 315.2901 0001656  90.1965 269.9355 13.15548275314431
ONEWEB-0006             
1 44061U 19010E   25252.23511463  .00000172  00000+0  42241-3 0  9992
2 44061  87.9047 315.2298 0001628  95.0290 265.1026 13.15548499314485
ONEWEB-0011             
1 44062U 19010F   25252.20343548 -.00000092  00000+0 -27936-3 0  9994
2 44062  87.9050 315.2479 0001871 104.5242 255.6096 13.15549512314471
ONEWEB-0013             
1 45131U 20008A   25252.12833151  .00000697  00000+0  19870-2 0  9992
2 45131  87.8493 109.5912 0002469  63.0923 297.0456 13.09434369269288
ONEWEB-0017             
1 45132U 20008B   25252.00411847  .00000618  00000+0  17352-2 0  9990
2 45132  87.8746  92.3518 0001425  88.2383 271.8908 13.10378408271122
ONEWEB-0020             
1 45133U 20008C   25251.97422015 -.00000574  00000+0 -16800-2 0  9995
2 45133  87.8743  92.3414 0001778  91.5417 268.5914 13.10371639271513
ONEWEB-0021             
1 45134U 20008D   25252.06554077 -.00000052  00000+0 -18402-3 0  9993
2 45134  87.8747  92.3569 0001625  81.8142 278.3170 13.10375571271834
ONEWEB-0023             
1 45136U 20008F   25251.99998083  .00000493  00000+0  13744-2 0  9995
2 45136  87.8744  92.3524 0001946  86.5011 273.6339 13.10376254271257
ONEWEB-0024             
1 45137U 20008G   25251.97258326 -.00000619  00000+0 -18087-2 0  9990
2 45137  87.8760  92.3093 0001612  85.1983 274.9328 13.10372937271414
ONEWEB-0025             
1 45138U 20008H   25252.06638225 -.00000005  00000+0 -51550-4 0  9995
2 45138  87.8764  92.3007 0002072  70.6559 289.4792 13.10376547271757
ONEWEB-0026             
1 45139U 20008J   25252.00495579 -.00000554  00000+0 -15982-2 0  9999
2 45139  87.8774  77.0858 0001577  94.1394 265.9914 13.11417032274259
ONEWEB-0028             
1 45140U 20008K   25251.96173782  .00000480  00000+0  13183-2 0  9991
2 45140  87.8773  77.1150 0002113  72.7636 287.3723 13.11417857271768
ONEWEB-0032             
1 45141U 20008L   25252.00579820  .00000650  00000+0  18247-2 0  9996
2 45141  87.8741  92.3519 0001800  80.9088 279.2243 13.10375434271474
ONEWEB-0033             
1 45142U 20008M   25251.98087978 -.00000452  00000+0 -13314-2 0  9993
2 45142  87.8745  92.3690 0001504  88.5201 271.6098 13.10375780271389
