[{"OBJECT_NAME":"ONEWEB-0012","OBJECT_ID":"2019-010A","EPOCH":"2025-09-09T03:22:12.968832","MEAN_MOTION":13.1659389,"ECCENTRICITY":0.00021297,"INCLINATION":87.8981,"RA_OF_ASC_NODE":284.8165,"ARG_OF_PERICENTER":82.5264,"MEAN_ANOMALY":277.6108,"EPHEMERIS_TYPE":0,"CLASSIFICATION_TYPE":"U","NORAD_CAT_ID":44057,"ELEMENT_SET_NO":999,"REV_AT_EPOCH":31458,"BSTAR":3.0075124e-5,"MEAN_MOTION_DOT":2.4e-7,"MEAN_MOTION_DDOT":0},{"OBJECT_NAME":"ONEWEB-0010","OBJECT_ID":"2019-010B","EPOCH":"2025-09-09T03:58:41.791872","MEAN_MOTION":13.16594439,"ECCENTRICITY":0.00014767,"INCLINATION":87.8986,"RA_OF_ASC_NODE":284.7945,"ARG_OF_PERICENTER":94.7594,"MEAN_ANOMALY":265.3705,"EPHEMERIS_TYPE":0,"CLASSIFICATION_TYPE":"U","NORAD_CAT_ID":44058,"ELEMENT_SET_NO":999,"REV_AT_EPOCH":31463,"BSTAR":0.00015601233,"MEAN_MOTION_DOT":7.3e-7,"MEAN_MOTION_DDOT":0},{"OBJECT_NAME":"ONEWEB-0008","OBJECT_ID":"2019-010C","EPOCH":"2025-09-09T00:56:16.023840","MEAN_MOTION":13.16596473,"ECCENTRICITY":0.00020817,"INCLINATION":87.898,"RA_OF_ASC_NODE":284.8172,"ARG_OF_PERICENTER":96.1252,"MEAN_ANOMALY":264.0116,"EPHEMERIS_TYPE":0,"CLASSIFICATION_TYPE":"U","NORAD_CAT_ID":44059,"ELEMENT_SET_NO":999,"REV_AT_EPOCH":31473,"BSTAR":0.00010072339,"MEAN_MOTION_DOT":5.1e-7,"MEAN_MOTION_DDOT":0},{"OBJECT_NAME":"ONEWEB-0007","OBJECT_ID":"2019-010D","EPOCH":"2025-09-09T05:32:52.484928","MEAN_MOTION":13.15548275,"ECCENTRICITY":0.00016569,"INCLINATION":87.9043,"RA_OF_ASC_NODE":315.2901,"ARG_OF_PERICENTER":90.1965,"MEAN_ANOMALY":269.9355,"EPHEMERIS_TYPE":0,"CLASSIFICATION_TYPE":"U","NORAD_CAT_ID":44060,"ELEMENT_SET_NO":999,"REV_AT_EPOCH":31443,"BSTAR":0.00010028747,"MEAN_MOTION_DOT":5.1e-7,"MEAN_MOTION_DDOT":0},{"OBJECT_NAME":"ONEWEB-0006","OBJECT_ID":"2019-010E","EPOCH":"2025-09-09T05:38:33.904032","MEAN_MOTION":13.15548499,"ECCENTRICITY":0.00016288,"INCLINATION":87.9047,"RA_OF_ASC_NODE":315.2298,"ARG_OF_PERICENTER":95.029,"MEAN_ANOMALY":265.1026,"EPHEMERIS_TYPE":0,"CLASSIFICATION_TYPE":"U","NORAD_CAT_ID":44061,"ELEMENT_SET_NO":999,"REV_AT_EPOCH":31448,"BSTAR":0.00042240661,"MEAN_MOTION_DOT":1.72e-6,"MEAN_MOTION_DDOT":0},{"OBJECT_NAME":"ONEWEB-0011","OBJECT_ID":"2019-010F","EPOCH":"2025-09-09T04:52:56.825472","MEAN_MOTION":13.15549512,"ECCENTRICITY":0.00018715,"INCLINATION":87.905,"RA_OF_ASC_NODE":315.2479,"ARG_OF_PERICENTER":104.5242,"MEAN_ANOMALY":255.6096,"EPHEMERIS_TYPE":0,"CLASSIFICATION_TYPE":"U","NORAD_CAT_ID":44062,"ELEMENT_SET_NO":999,"REV_AT_EPOCH":31447,"BSTAR":-0.00027936301,"MEAN_MOTION_DOT":-9.2e-7,"MEAN_MOTION_DDOT":0},{"OBJECT_NAME":"ONEWEB-0013","OBJECT_ID":"2020-008A","EPOCH":"2025-09-09T03:04:47.842464","MEAN_MOTION":13.09434369,"ECCENTRICITY":0.00024692,"INCLINATION":87.8493,"RA_OF_ASC_NODE":109.5912,"ARG_OF_PERICENTER":63.0923,"MEAN_ANOMALY":297.0456,"EPHEMERIS_TYPE":0,"CLASSIFICATION_TYPE":"U","NORAD_CAT_ID":45131,"ELEMENT_SET_NO":999,"REV_AT_EPOCH":26928,"BSTAR":0.0019869623,"MEAN_MOTION_DOT":6.97e-6,"MEAN_MOTION_DDOT":0},{"OBJECT_NAME":"ONEWEB-0017","OBJECT_ID":"2020-008B","EPOCH":"2025-09-09T00:05:55.835808","MEAN_MOTION":13.10378408,"ECCENTRICITY":0.00014251,"INCLINATION":87.8746,"RA_OF_ASC_NODE":92.3518,"ARG_OF_PERICENTER":88.2383,"MEAN_ANOMALY":271.8908,"EPHEMERIS_TYPE":0,"CLASSIFICATION_TYPE":"U","NORAD_CAT_ID":45132,"ELEMENT_SET_NO":999,"REV_AT_EPOCH":27112,"BSTAR":0.0017352463,"MEAN_MOTION_DOT":6.18e-6,"MEAN_MOTION_DDOT":0},{"OBJECT_NAME":"ONEWEB-0020","OBJECT_ID":"2020-008C","EPOCH":"2025-09-08T23:22:52.620960","MEAN_MOTION":13.10371639,"ECCENTRICITY":0.00017783,"INCLINATION":87.8743,"RA_OF_ASC_NODE":92.3414,"ARG_OF_PERICENTER":91.5417,"MEAN_ANOMALY":268.5914,"EPHEMERIS_TYPE":0,"CLASSIFICATION_TYPE":"U","NORAD_CAT_ID":45133,"ELEMENT_SET_NO":999,"REV_AT_EPOCH":27151,"BSTAR":-0.0016800381,"MEAN_MOTION_DOT":-5.74e-6,"MEAN_MOTION_DDOT":0},{"OBJECT_NAME":"ONEWEB-0021","OBJECT_ID":"2020-008D","EPOCH":"2025-09-09T01:34:22.722528","MEAN_MOTION":13.10375571,"ECCENTRICITY":0.00016257,"INCLINATION":87.8747,"RA_OF_ASC_NODE":92.3569,"ARG_OF_PERICENTER":81.8142,"MEAN_ANOMALY":278.317,"EPHEMERIS_TYPE":0,"CLASSIFICATION_TYPE":"U","NORAD_CAT_ID":45134,"ELEMENT_SET_NO":999,"REV_AT_EPOCH":27183,"BSTAR":-0.0001840224,"MEAN_MOTION_DOT":-5.2e-7,"MEAN_MOTION_DDOT":0},{"OBJECT_NAME":"ONEWEB-0023","OBJECT_ID":"2020-008F","EPOCH":"2025-09-08T23:59:58.343712","MEAN_MOTION":13.10376254,"ECCENTRICITY":0.00019461,"INCLINATION":87.8744,"RA_OF_ASC_NODE":92.3524,"ARG_OF_PERICENTER":86.5011,"MEAN_ANOMALY":273.6339,"EPHEMERIS_TYPE":0,"CLASSIFICATION_TYPE":"U","NORAD_CAT_ID":45136,"ELEMENT_SET_NO":999,"REV_AT_EPOCH":27125,"BSTAR":0.0013744236,"MEAN_MOTION_DOT":4.93e-6,"MEAN_MOTION_DDOT":0},{"OBJECT_NAME":"ONEWEB-0024","OBJECT_ID":"2020-008G","EPOCH":"2025-09-08T23:20:31.193664","MEAN_MOTION":13.10372937,"ECCENTRICITY":0.00016121,"INCLINATION":87.876,"RA_OF_ASC_NODE":92.3093,"ARG_OF_PERICENTER":85.1983,"MEAN_ANOMALY":274.9328,"EPHEMERIS_TYPE":0,"CLASSIFICATION_TYPE":"U","NORAD_CAT_ID":45137,"ELEMENT_SET_NO":999,"REV_AT_EPOCH":27141,"BSTAR":-0.0018086977,"MEAN_MOTION_DOT":-6.19e-6,"MEAN_MOTION_DDOT":0},{"OBJECT_NAME":"ONEWEB-0025","OBJECT_ID":"2020-008H","EPOCH":"2025-09-09T01:35:35.426400","MEAN_MOTION":13.10376547,"ECCENTRICITY":0.00020724,"INCLINATION":87.8764,"RA_OF_ASC_NODE":92.3007,"ARG_OF_PERICENTER":70.6559,"MEAN_ANOMALY":289.4792,"EPHEMERIS_TYPE":0,"CLASSIFICATION_TYPE":"U","NORAD_CAT_ID":45138,"ELEMENT_SET_NO":999,"REV_AT_EPOCH":27175,"BSTAR":-5.1549874e-5,"MEAN_MOTION_DOT":-5.0e-8,"MEAN_MOTION_DDOT":0},{"OBJECT_NAME":"ONEWEB-0026","OBJECT_ID":"2020-008J","EPOCH":"2025-09-09T00:07:08.180256","MEAN_MOTION":13.11417032,"ECCENTRICITY":0.00015776,"INCLINATION":87.8774,"RA_OF_ASC_NODE":77.0858,"ARG_OF_PERICENTER":94.1394,"MEAN_ANOMALY":265.9914,"EPHEMERIS_TYPE":0,"CLASSIFICATION_TYPE":"U","NORAD_CAT_ID":45139,"ELEMENT_SET_NO":999,"REV_AT_EPOCH":27425,"BSTAR":-0.0015982136,"MEAN_MOTION_DOT":-5.54e-6,"MEAN_MOTION_DDOT":0},{"OBJECT_NAME":"ONEWEB-0028","OBJECT_ID":"2020-008K","EPOCH":"2025-09-08T23:04:54.147648","MEAN_MOTION":13.11417857,"ECCENTRICITY":0.00021139,"INCLINATION":87.8773,"RA_OF_ASC_NODE":77.115,"ARG_OF_PERICENTER":72.7636,"MEAN_ANOMALY":287.3723,"EPHEMERIS_TYPE":0,"CLASSIFICATION_TYPE":"U","NORAD_CAT_ID":45140,"ELEMENT_SET_NO":999,"REV_AT_EPOCH":27176,"BSTAR":0.0013182635,"MEAN_MOTION_DOT":4.8e-6,"MEAN_MOTION_DDOT":0},{"OBJECT_NAME":"ONEWEB-0032","OBJECT_ID":"2020-008L","EPOCH":"2025-09-09T00:08:20.964480","MEAN_MOTION":13.10375434,"ECCENTRICITY":0.00018002,"INCLINATION":87.8741,"RA_OF_ASC_NODE":92.3519,"ARG_OF_PERICENTER":80.9088,"MEAN_ANOMALY":279.2243,"EPHEMERIS_TYPE":0,"CLASSIFICATION_TYPE":"U","NORAD_CAT_ID":45141,"ELEMENT_SET_NO":999,"REV_AT_EPOCH":27147,"BSTAR":0.0018246519,"MEAN_MOTION_DOT":6.5e-6,"MEAN_MOTION_DDOT":0},{"OBJECT_NAME":"ONEWEB-0033","OBJECT_ID":"2020-008M","EPOCH":"2025-09-08T23:32:28.012992","MEAN_MOTION":13.1037578,"ECCENTRICITY":0.00015041,"INCLINATION":87.8745,"RA_OF_ASC_NODE":92.369,"ARG_OF_PERICENTER":88.5201,"MEAN_ANOMALY":271.6098,"EPHEMERIS_TYPE":0,"CLASSIFICATION_TYPE":"U","NORAD_CAT_ID":45142,"ELEMENT_SET_NO":999,"REV_AT_EPOCH":27138,"BSTAR":-0.0013314412,"MEAN_MOTION_DOT":-4.52e-6,"MEAN_MOTION_DDOT":0}]
